{"type":"FeatureCollection", "features": [
{"type":"Feature","geometry":{"type":"Polygon","coordinates":[[[35.917788,35.928786],[35.931439,35.920537],[35.975943,35.938937],[36.00654,35.94081],[36.017889,35.921018],[35.998344,35.8839],[36.047622,35.880039],[36.112856,35.862006],[36.135676,35.84131],[36.173371,35.835529],[36.16914,35.883572],[36.175873,35.921555],[36.208333,35.953334],[36.29891,35.962779],[36.286132,35.983373],[36.300039,36.010957],[36.339216,35.988467],[36.376217,36.011593],[36.39033,36.082063],[36.370947,36.117456],[36.38911,36.146031],[36.373245,36.17867],[36.428541,36.207993],[36.457016,36.207826],[36.499652,36.223489],[36.502422,36.242265],[36.533961,36.245272],[36.624687,36.214325],[36.694913,36.245246],[36.656323,36.298106],[36.657252,36.337599],[36.630602,36.344832],[36.602929,36.331936],[36.59947,36.368597],[36.56619,36.435395],[36.543936,36.501739],[36.572369,36.528412],[36.591436,36.585539],[36.57792,36.607929],[36.573628,36.659134],[36.608116,36.677005],[36.631482,36.712721],[36.612899,36.744249],[36.662439,36.793385],[36.684972,36.825507],[36.75193,36.819368],[36.793357,36.796835],[36.884776,36.77868],[36.923918,36.786318],[36.970839,36.764324],[36.996585,36.74049],[37.036984,36.73626],[37.040184,36.703208],[37.01615,36.695889],[37.020742,36.666159],[37.057547,36.654877],[37.085911,36.634501],[37.106192,36.671548],[37.142075,36.677322],[37.162561,36.656867],[37.216762,36.675316],[37.283831,36.670099],[37.471151,36.634769],[37.488357,36.666291],[37.524715,36.687611],[37.622035,36.724778],[37.658179,36.749049],[37.700312,36.757264],[37.77764,36.749089],[37.799709,36.763278],[37.901916,36.791205],[37.940712,36.818564],[37.993349,36.831971],[38.019421,36.826467],[38.036381,36.860742],[38.163892,36.901013],[38.214199,36.908311],[38.24305,36.924002],[38.265479,36.91466],[38.34541,36.899577],[38.392415,36.901865],[38.552453,36.84563],[38.570574,36.824719],[38.636786,36.778785],[38.689012,36.736433],[38.747602,36.706782],[38.895273,36.700895],[39.018948,36.710761],[39.058522,36.706347],[39.209455,36.669332],[39.361195,36.692043],[39.491233,36.700347],[39.596072,36.72319],[39.638652,36.724558],[39.710726,36.749971],[39.816658,36.756059],[39.854153,36.77636],[39.930583,36.797356],[39.997975,36.822211],[40.027313,36.825757],[40.059396,36.854278],[40.110745,36.867532],[40.180844,36.877121],[40.236751,36.914279],[40.305266,36.938725],[40.37703,36.978248],[40.398612,37.008229],[40.418789,37.016515],[40.528079,37.027765],[40.588327,37.061553],[40.615595,37.063647],[40.695212,37.103575],[40.755064,37.11098],[40.762329,37.125474],[40.848545,37.122339],[40.916572,37.131331],[40.983172,37.116012],[41.012705,37.115711],[41.116776,37.094656],[41.163581,37.094743],[41.218055,37.061883],[41.23702,37.075738],[41.292744,37.080864],[41.517546,37.077947],[41.597543,37.105263],[41.664567,37.118311],[41.690368,37.114354],[41.794238,37.128409],[41.929921,37.158718],[41.948413,37.157308],[42.000904,37.180872],[42.034918,37.182048],[42.093966,37.220468],[42.183735,37.286424],[42.196523,37.31185],[42.224871,37.309474],[42.234299,37.283185],[42.292518,37.261141],[42.343313,37.229801],[42.320605,37.185395],[42.352527,37.130317],[42.350402,37.09053],[42.374569,37.07757],[42.353942,37.052997],[41.999758,36.738609],[41.970343,36.700617],[41.941731,36.686633],[41.885737,36.636624],[41.817194,36.58765],[41.402112,36.524067],[41.293938,36.364818],[41.286262,36.33422],[41.27315,36.185375],[41.255821,36.05998],[41.369412,35.843617],[41.382038,35.625278],[41.324038,35.553846],[41.328003,35.544797],[41.262175,35.456026],[41.255695,35.41806],[41.274921,35.384918],[41.242401,35.285484],[41.22525,35.204242],[41.218105,35.132249],[41.22311,35.048107],[41.218702,35.014168],[41.227496,34.973777],[41.223221,34.893677],[41.235473,34.81996],[41.228272,34.778334],[41.122297,34.653705],[41.016691,34.448171],[40.978032,34.397851],[40.640014,34.315105],[40.443874,34.21767],[39.982526,33.984959],[39.729754,33.858233],[39.304502,33.640063],[39.066036,33.517545],[38.757864,33.356073],[38.678096,33.307073],[38.431368,33.182789],[38.362911,33.162929],[38.35045,33.141362],[38.263753,33.093364],[37.945095,32.92296],[37.888418,32.893941],[37.867394,32.903582],[37.818037,32.905384],[37.769333,32.878723],[37.776524,32.851345],[37.762171,32.787858],[37.740796,32.7618],[37.686718,32.747412],[37.581921,32.733717],[37.520529,32.717501],[37.485473,32.689644],[37.444247,32.642948],[37.424555,32.606952],[37.379112,32.592094],[37.359916,32.560229],[37.314037,32.558067],[37.255432,32.571916],[37.206745,32.557422],[37.161722,32.515925],[37.104801,32.454591],[37.064761,32.428506],[37.008778,32.424819],[36.962262,32.43998],[36.891692,32.35455],[36.880893,32.333755],[36.838094,32.311354],[36.786595,32.321055],[36.709823,32.316373],[36.689318,32.334509],[36.646141,32.342845],[36.511834,32.357244],[36.47407,32.371417],[36.406835,32.377144],[36.372944,32.398844],[36.305557,32.459268],[36.237092,32.49995],[36.21186,32.494839],[36.206673,32.519641],[36.16329,32.51462],[36.122587,32.524738],[36.078734,32.513485],[36.062642,32.57618],[36.029585,32.597139],[36.026938,32.653349],[35.967172,32.662406],[35.946007,32.685371],[35.936195,32.718035],[35.882097,32.714544],[35.868864,32.732715],[35.834814,32.726648],[35.786276,32.747638],[35.782556,32.774326],[35.800314,32.782276],[35.837677,32.828166],[35.851117,32.889809],[35.895023,32.944877],[35.871324,32.981419],[35.850451,33.102351],[35.816977,33.112991],[35.844443,33.167612],[35.837681,33.193058],[35.817157,33.203111],[35.815062,33.244961],[35.777406,33.276731],[35.813197,33.31696],[35.773335,33.335632],[35.816111,33.370833],[35.826944,33.405],[35.876389,33.425833],[35.931389,33.464444],[35.953333,33.488056],[35.938889,33.520833],[35.951944,33.533889],[36.028889,33.549167],[36.059167,33.579444],[36.035073,33.589873],[36.019061,33.613707],[35.945833,33.6375],[35.939444,33.662778],[35.971944,33.693333],[35.968333,33.715],[35.993056,33.734167],[36.02,33.771944],[36.036667,33.773056],[36.067222,33.824444],[36.089167,33.819722],[36.1525,33.855278],[36.201944,33.833056],[36.246111,33.859722],[36.323056,33.833056],[36.396365,33.83357],[36.391111,33.854444],[36.355833,33.881389],[36.325278,33.878889],[36.283333,33.917778],[36.328056,33.977778],[36.403056,34.034167],[36.404167,34.049167],[36.440278,34.058611],[36.475833,34.050556],[36.506389,34.066667],[36.508333,34.094444],[36.550278,34.133056],[36.564167,34.134722],[36.595,34.189444],[36.625,34.203889],[36.592222,34.229444],[36.580556,34.2775],[36.600278,34.294444],[36.595,34.315],[36.559167,34.323611],[36.531944,34.377778],[36.557222,34.403056],[36.548333,34.427778],[36.463541,34.464284],[36.441584,34.506074],[36.421693,34.499691],[36.380278,34.507778],[36.355278,34.499167],[36.341944,34.527778],[36.3975,34.554444],[36.409722,34.611667],[36.454167,34.596389],[36.451667,34.634167],[36.417477,34.625969],[36.381019,34.633936],[36.35145,34.65975],[36.338406,34.692354],[36.311258,34.683086],[36.297367,34.635264],[36.228566,34.629826],[36.189363,34.637599],[36.089231,34.629152],[36.036051,34.62865],[35.968222,34.653141],[35.932269,34.736141],[35.928733,34.778738],[35.869598,34.899296],[35.879215,34.918904],[35.878082,34.989168],[35.898308,35.009387],[35.885577,35.064664],[35.886849,35.099737],[35.951563,35.190232],[35.948344,35.227657],[35.920437,35.278458],[35.920919,35.34515],[35.914088,35.419289],[35.872665,35.458791],[35.802441,35.504231],[35.76167,35.507836],[35.772569,35.534156],[35.744824,35.573226],[35.785006,35.632943],[35.768247,35.66967],[35.797911,35.68467],[35.830403,35.715422],[35.845262,35.750297],[35.819878,35.8294],[35.878019,35.870748],[35.887974,35.903299],[35.917788,35.928786]]]},"properties":{"srid":"4326","id":"184840","name":"Syria","localname":"سوريا","official_name":"","boundary":"adminstrative","admin_level":"2","note":"","wikidata":"Q858","wikipedia":"ar:سوريا","timestamp":"2018-05-15 11:34:05","rpath":"184840,0","alltags":{"flag":"http://upload.wikimedia.org/wikipedia/commons/5/53/Flag_of_Syria.svg","name":"سوريا","name:af":"Sirië","name:am":"ሶርያ","name:an":"Siria","name:ar":"سوريا","name:av":"Сирия","name:az":"Suriya","name:ba":"Сирия","name:be":"Сірыя","name:bg":"Сирия","name:bm":"Suriya","name:bn":"সিরিয়া","name:bo":"སི་རི་ཡ།","name:br":"Siria","name:bs":"Sirija","name:ca":"República Àrab Siriana","name:ce":"Сири","name:cs":"Sýrie","name:cu":"Сѷрїꙗ","name:cv":"Сири","name:cy":"Syria","name:da":"Syrien","name:de":"Syrien","name:dv":"ސޫރިޔާ","name:el":"Συρία","name:en":"Syria","name:eo":"Sirio","name:es":"Siria","name:et":"Süüria","name:eu":"Siria","name:fa":"سوریه","name:fi":"Syyria","name:fo":"Sýria","name:fr":"Syrie","name:fy":"Syrje","name:ga":"An tSiria","name:gd":"Siria","name:gl":"Siria - سورية","name:gu":"સિરિયા","name:gv":"Yn Teer","name:he":"סוריה","name:hi":"सीरिया","name:hr":"Sirija","name:ht":"Siri","name:hu":"Szíria","name:hy":"Սիրիա","name:ia":"Syria","name:id":"Suriah","name:ie":"Siria","name:io":"Siria","name:is":"Sýrland","name:it":"Siria","name:ja":"シリア","name:jv":"Suriah","name:ka":"სირია","name:ki":"Syria","name:kk":"Сирия","name:kl":"Syria","name:kn":"ಸಿರಿಯಾ","name:ko":"시리아","name:ku":"Sûrî","name:kv":"Сирия","name:kw":"Syri","name:ky":"Сирия","name:la":"Syria","name:lb":"Syrien","name:li":"Syrië","name:ln":"Sirí","name:lt":"Sirija","name:lv":"Sīrija","name:mg":"Siria","name:mi":"Hiria","name:mk":"Сирија","name:ml":"സിറിയ","name:mn":"Сири","name:mr":"सीरिया","name:ms":"Syria","name:my":"ဆီးရီးယားနိုင်ငံ","name:na":"Syria","name:ne":"सीरिया","name:nl":"Syrië","name:nn":"Syria","name:no":"Syria","name:nv":"Sííwiya","name:oc":"Siria","name:or":"ସିରିଆ","name:os":"Сири","name:pa":"ਸੀਰੀਆ","name:pl":"Syria","name:ps":"سوريه","name:pt":"Síria","name:qu":"Sirya","name:ro":"Siria","name:ru":"Сирия","name:rw":"Siriya","name:sa":"सिरिया","name:sc":"Siria","name:se":"Syria","name:sh":"Sirija","name:sk":"Sýria","name:sl":"Sirija","name:so":"Suuriya","name:sq":"Siria","name:sr":"Сирија","name:ss":"ISiriya","name:su":"Suriah","name:sv":"Syrien","name:sw":"Syria","name:ta":"சிரியா","name:te":"సిరియా","name:tg":"Сурия","name:th":"ประเทศซีเรีย","name:tk":"Siriýa","name:tl":"Sirya","name:tr":"Suriye","name:tt":"Сүрия","name:ug":"سۇرىيە","name:uk":"Сирія","name:ur":"شام","name:uz":"Suriya","name:vi":"Syria","name:vo":"Süriyän","name:wa":"Sireye","name:wo":"Siri","name:yi":"סיריע","name:yo":"Síríà","name:zh":"叙利亚","boundary":"administrative","int_name":"Syria","name:ace":"Suriyah","name:als":"Syrien","name:ang":"Syria","name:arc":"ܣܘܪܝܐ","name:arz":"سوريا","name:ast":"Siria","name:bar":"Syrien","name:bcl":"Sirya","name:bpy":"সিরিয়া","name:bug":"Suriah","name:bxr":"Сири","name:cdo":"Sṳ̆-lê-ā","name:ceb":"Siria","name:ckb":"سووریا","name:crh":"Suriye","name:diq":"Suriya","name:dsb":"Syriska","name:ext":"Síria","name:frp":"Sirie","name:gag":"Siriya","name:glk":"سوری","name:hak":"Si-li-â","name:haw":"Suria","name:hif":"Syria","name:hsb":"Syriska","name:ilo":"Siria","name:jbo":"sixygu'e","name:kab":"Surya","name:kbd":"Шам","name:lez":"Сирия","name:lij":"Sciria","name:lmo":"Siria","name:mdf":"Сирие","name:mhr":"Сирий","name:mzn":"سوریه","name:nah":"Siria","name:nds":"Syrien","name:nov":"Siria","name:pam":"Siria","name:pih":"Siriya","name:pms":"Siria","name:pnb":"شام","name:pnt":"Συρία","name:sah":"Сирия","name:scn":"Siria","name:sco":"Sirie","name:szl":"Syryjo","name:tzl":"Süria","name:udm":"Сирия","name:war":"Sirya","name:wuu":"叙利亚","name:xal":"Сирмудин Араб Орн","name:zea":"Syrië","timezone":"Asia/Damascus","wikidata":"Q858","ISO3166-1":"SY","wikipedia":"ar:سوريا","population":"17951639","admin_level":"2","name:nds-nl":"Syrië","name:simple":"Syria","name:zh-yue":"敘利亞","full_name:ar":"الجمهورية العربية السورية","name:bat-smg":"Sėrėjė","name:fiu-vro":"Süüria","name:be-tarask":"Сырыя","is_in:continent":"Asia","name:zh-min-nan":"Su-lī-a","population:date":"2014","ISO3166-1:alpha2":"SY","ISO3166-1:alpha3":"SYR","default_language":"ar","official_name:cs":"Syrská arabská republika","official_name:en":"Syrian Arab Republic","official_name:fr":"République arabe syrienne","official_name:ru":"Сирийская Арабская Республика","ISO3166-1:numeric":"760"}}}
]}